{
  "type": "FeatureCollection",
  "features": [
    {
      "type": "Feature",
      "properties": {
        "norad_id": 43823,
        "name": "GEO-KOMPSAT-2A",
        "group": "weather",
        "lat": 0.006631553191420329,
        "lon": -66.80865852190603,
        "alt_km": 35787.90261366449,
        "timestamp": "2025-12-26T04:40:05.429966+00:00",
        "meta_object_name": "GEO-KOMPSAT-2A",
        "meta_object_id": "2018-100A",
        "meta_epoch": "2025-12-25T12:13:38.614080",
        "meta_mean_motion": 1.00268534,
        "meta_eccentricity": 2.51e-05,
        "meta_inclination": 0.0434,
        "meta_ra_of_asc_node": 172.7377,
        "meta_arg_of_pericenter": 259.9479,
        "meta_mean_anomaly": 333.2359,
        "meta_ephemeris_type": 0,
        "meta_classification_type": "U",
        "meta_norad_cat_id": 43823,
        "meta_element_set_no": 999,
        "meta_rev_at_epoch": 2588,
        "meta_bstar": 0,
        "meta_mean_motion_dot": -3.22e-06,
        "meta_mean_motion_ddot": 0,
        "tle_line1": "1 43823U 18100A   25359.50947470 -.00000322  00000+0  00000+0 0  9996",
        "tle_line2": "2 43823   0.0434 172.7377 0000251 259.9479 333.2359  1.00268534 25880"
      },
      "geometry": {
        "type": "Point",
        "coordinates": [
          -66.80865852190603,
          0.006631553191420329
        ]
      }
    },
    {
      "type": "Feature",
      "properties": {
        "norad_id": 44387,
        "name": "METEOR-M2 2",
        "group": "weather",
        "lat": -24.78138751840412,
        "lon": 155.94052709852,
        "alt_km": 816.1799016988243,
        "timestamp": "2025-12-26T04:40:05.429984+00:00",
        "meta_object_name": "METEOR-M2 2",
        "meta_object_id": "2019-038A",
        "meta_epoch": "2025-12-25T22:39:03.187296",
        "meta_mean_motion": 14.24296441,
        "meta_eccentricity": 0.0001821,
        "meta_inclination": 98.8989,
        "meta_ra_of_asc_node": 339.8347,
        "meta_arg_of_pericenter": 124.1577,
        "meta_mean_anomaly": 235.9774,
        "meta_ephemeris_type": 0,
        "meta_classification_type": "U",
        "meta_norad_cat_id": 44387,
        "meta_element_set_no": 999,
        "meta_rev_at_epoch": 33663,
        "meta_bstar": 4.5826912e-05,
        "meta_mean_motion_dot": 6e-07,
        "meta_mean_motion_ddot": 0,
        "tle_line1": "1 44387U 19038A   25359.94378689  .00000060  00000+0  45827-4 0  9990",
        "tle_line2": "2 44387  98.8989 339.8347 0001821 124.1577 235.9774 14.24296441336630"
      },
      "geometry": {
        "type": "Point",
        "coordinates": [
          155.94052709852,
          -24.78138751840412
        ]
      }
    },
    {
      "type": "Feature",
      "properties": {
        "norad_id": 47719,
        "name": "ARKTIKA-M 1",
        "group": "weather",
        "lat": 60.59266873325913,
        "lon": 145.93562924767306,
        "alt_km": 36993.73188325979,
        "timestamp": "2025-12-26T04:40:05.430005+00:00",
        "meta_object_name": "ARKTIKA-M 1",
        "meta_object_id": "2021-016A",
        "meta_epoch": "2025-12-25T00:52:45.922368",
        "meta_mean_motion": 2.00630507,
        "meta_eccentricity": 0.7210339,
        "meta_inclination": 63.177,
        "meta_ra_of_asc_node": 82.3163,
        "meta_arg_of_pericenter": 269.1694,
        "meta_mean_anomaly": 15.5374,
        "meta_ephemeris_type": 0,
        "meta_classification_type": "U",
        "meta_norad_cat_id": 47719,
        "meta_element_set_no": 999,
        "meta_rev_at_epoch": 3529,
        "meta_bstar": 0,
        "meta_mean_motion_dot": -4.3e-07,
        "meta_mean_motion_ddot": 0,
        "tle_line1": "1 47719U 21016A   25359.03664262 -.00000043  00000+0  00000+0 0  9997",
        "tle_line2": "2 47719  63.1770  82.3163 7210339 269.1694  15.5374  2.00630507 35296"
      },
      "geometry": {
        "type": "Point",
        "coordinates": [
          145.93562924767306,
          60.59266873325913
        ]
      }
    },
    {
      "type": "Feature",
      "properties": {
        "norad_id": 49008,
        "name": "FENGYUN 3E",
        "group": "weather",
        "lat": -48.7136345696392,
        "lon": 10.654865077814486,
        "alt_km": 832.9561494239342,
        "timestamp": "2025-12-26T04:40:05.430023+00:00",
        "meta_object_name": "FENGYUN 3E",
        "meta_object_id": "2021-062A",
        "meta_epoch": "2025-12-25T23:49:37.807680",
        "meta_mean_motion": 14.19881599,
        "meta_eccentricity": 0.00010078,
        "meta_inclination": 98.7479,
        "meta_ra_of_asc_node": 0.3565,
        "meta_arg_of_pericenter": 188.7016,
        "meta_mean_anomaly": 171.4143,
        "meta_ephemeris_type": 0,
        "meta_classification_type": "U",
        "meta_norad_cat_id": 49008,
        "meta_element_set_no": 999,
        "meta_rev_at_epoch": 23200,
        "meta_bstar": 4.5198367e-05,
        "meta_mean_motion_dot": 5.2e-07,
        "meta_mean_motion_ddot": 0,
        "tle_line1": "1 49008U 21062A   25359.99279870  .00000052  00000+0  45198-4 0  9994",
        "tle_line2": "2 49008  98.7479   0.3565 0001007 188.7016 171.4143 14.19881599232008"
      },
      "geometry": {
        "type": "Point",
        "coordinates": [
          10.654865077814486,
          -48.7136345696392
        ]
      }
    },
    {
      "type": "Feature",
      "properties": {
        "norad_id": 51850,
        "name": "GOES 18",
        "group": "weather",
        "lat": 0.00027892888177794207,
        "lon": 27.96004563721484,
        "alt_km": 35785.604101690784,
        "timestamp": "2025-12-26T04:40:05.430044+00:00",
        "meta_object_name": "GOES 18",
        "meta_object_id": "2022-021A",
        "meta_epoch": "2025-12-25T12:22:38.764416",
        "meta_mean_motion": 1.00271349,
        "meta_eccentricity": 4.36e-05,
        "meta_inclination": 0.0208,
        "meta_ra_of_asc_node": 187.5014,
        "meta_arg_of_pericenter": 127.4929,
        "meta_mean_anomaly": 187.9384,
        "meta_ephemeris_type": 0,
        "meta_classification_type": "U",
        "meta_norad_cat_id": 51850,
        "meta_element_set_no": 999,
        "meta_rev_at_epoch": 485,
        "meta_bstar": 0,
        "meta_mean_motion_dot": 1.18e-06,
        "meta_mean_motion_ddot": 0,
        "tle_line1": "1 51850U 22021A   25359.51572644  .00000118  00000+0  00000+0 0  9992",
        "tle_line2": "2 51850   0.0208 187.5014 0000436 127.4929 187.9384  1.00271349  4858"
      },
      "geometry": {
        "type": "Point",
        "coordinates": [
          27.96004563721484,
          0.00027892888177794207
        ]
      }
    },
    {
      "type": "Feature",
      "properties": {
        "norad_id": 54234,
        "name": "NOAA 21 (JPSS-2)",
        "group": "weather",
        "lat": -59.10789544583603,
        "lon": -48.75117607011096,
        "alt_km": 833.644620224989,
        "timestamp": "2025-12-26T04:40:05.430062+00:00",
        "meta_object_name": "NOAA 21 (JPSS-2)",
        "meta_object_id": "2022-150A",
        "meta_epoch": "2025-12-25T22:11:05.599104",
        "meta_mean_motion": 14.1952765,
        "meta_eccentricity": 0.0001609,
        "meta_inclination": 98.7478,
        "meta_ra_of_asc_node": 296.0691,
        "meta_arg_of_pericenter": 10.7308,
        "meta_mean_anomaly": 349.3903,
        "meta_ephemeris_type": 0,
        "meta_classification_type": "U",
        "meta_norad_cat_id": 54234,
        "meta_element_set_no": 999,
        "meta_rev_at_epoch": 16196,
        "meta_bstar": 6.5040378e-05,
        "meta_mean_motion_dot": 9.3e-07,
        "meta_mean_motion_ddot": 0,
        "tle_line1": "1 54234U 22150A   25359.92437036  .00000093  00000+0  65040-4 0  9996",
        "tle_line2": "2 54234  98.7478 296.0691 0001609  10.7308 349.3903 14.19527650161965"
      },
      "geometry": {
        "type": "Point",
        "coordinates": [
          -48.75117607011096,
          -59.10789544583603
        ]
      }
    },
    {
      "type": "Feature",
      "properties": {
        "norad_id": 54743,
        "name": "METEOSAT-12 (MTG-I1)",
        "group": "weather",
        "lat": 0.47004096379512705,
        "lon": 164.61833274733308,
        "alt_km": 35787.80517942739,
        "timestamp": "2025-12-26T04:40:05.430080+00:00",
        "meta_object_name": "METEOSAT-12 (MTG-I1)",
        "meta_object_id": "2022-170C",
        "meta_epoch": "2025-12-25T19:54:47.832192",
        "meta_mean_motion": 1.00270905,
        "meta_eccentricity": 0.00016721,
        "meta_inclination": 0.7005,
        "meta_ra_of_asc_node": 25.7818,
        "meta_arg_of_pericenter": 241.4278,
        "meta_mean_anomaly": 125.7502,
        "meta_ephemeris_type": 0,
        "meta_classification_type": "U",
        "meta_norad_cat_id": 54743,
        "meta_element_set_no": 999,
        "meta_rev_at_epoch": 1123,
        "meta_bstar": 0,
        "meta_mean_motion_dot": 1.4e-07,
        "meta_mean_motion_ddot": 0,
        "tle_line1": "1 54743U 22170C   25359.82972028  .00000014  00000+0  00000+0 0  9990",
        "tle_line2": "2 54743   0.7005  25.7818 0001672 241.4278 125.7502  1.00270905 11235"
      },
      "geometry": {
        "type": "Point",
        "coordinates": [
          164.61833274733308,
          0.47004096379512705
        ]
      }
    }
  ]
}